[{"OBJECT_NAME":"STARLINK-6196","OBJECT_ID":"2023-064AR","EPOCH":"2026-03-09T11:19:27.284448","MEAN_MOTION":14.98333961,"ECCENTRICITY":0.00036414,"INCLINATION":70.0005,"RA_OF_ASC_NODE":104.8614,"ARG_OF_PERICENTER":271.9465,"MEAN_ANOMALY":88.1277,"EPHEMERIS_TYPE":0,"CLASSIFICATION_TYPE":"U","NORAD_CAT_ID":56487,"ELEMENT_SET_NO":999,"REV_AT_EPOCH":15620,"BSTAR":0.00024760709,"MEAN_MOTION_DOT":2.863e-5,"MEAN_MOTION_DDOT":0},{"OBJECT_NAME":"CZ-4B R\/B","OBJECT_ID":"2011-079B","EPOCH":"2026-03-09T23:23:58.850880","MEAN_MOTION":15.14795537,"ECCENTRICITY":0.01251775,"INCLINATION":98.4688,"RA_OF_ASC_NODE":256.8191,"ARG_OF_PERICENTER":336.5095,"MEAN_ANOMALY":23.0446,"EPHEMERIS_TYPE":0,"CLASSIFICATION_TYPE":"U","NORAD_CAT_ID":38039,"ELEMENT_SET_NO":999,"REV_AT_EPOCH":77480,"BSTAR":0.00026364037,"MEAN_MOTION_DOT":5.867e-5,"MEAN_MOTION_DDOT":0}]
